0 FENGYUN 1C DEB
1 32199U 99025CUV 13276.61270581  .00006274  00000-0  18825-2 0  2222
2 32199 099.1676 059.0037 0162313 171.0506 191.3736 14.35746950322870
0 FENGYUN 1C DEB
1 32199U 99025CUV 13278.21519239  .00005950  00000-0  17590-2 0  2235
2 32199 099.1776 060.7188 0170294 165.5019 195.1697 14.35761893323109
